{"type": "FeatureCollection", "features": [ {"type": "Feature", "properties": {"norad_id": 30283, "name": "FENGYUN 1C DEB", "group": "fengyun-1c-debris", "lat": 73.253881302624, "lon": -36.65127198870032, "alt_km": 838.5930199767035, "timestamp": "2025-12-27T07:26:25.497008+00:00", "meta": {"OBJECT_NAME": "FENGYUN 1C DEB", "OBJECT_ID": "1999-025YU", "EPOCH": "2025-12-26T22:37:18.823008", "MEAN_MOTION": 14.01979767, "ECCENTRICITY": 0.01839576, "INCLINATION": 98.8671, "RA_OF_ASC_NODE": 354.2436, "ARG_OF_PERICENTER": 3.7802, "MEAN_ANOMALY": 16.4933, "EPHEMERIS_TYPE": 0, "CLASSIFICATION_TYPE": "U", "NORAD_CAT_ID": 30283, "ELEMENT_SET_NO": 999, "REV_AT_EPOCH": 96890, "BSTAR": 0.00014182996, "MEAN_MOTION_DOT": 2.07e-06, "MEAN_MOTION_DDOT": 0}, "tle": {"line1": "1 30283U 99025YU  25360.94257897  .00000207  00000+0  14183-3 0  9996", "line2": "2 30283  98.8671 354.2436 0183957   3.7802  16.4933 14.01979767968906"}}, "geometry": {"type": "Point", "coordinates": [-36.65127198870032, 73.253881302624]}}, {"type": "Feature", "properties": {"norad_id": 30284, "name": "FENGYUN 1C DEB", "group": "fengyun-1c-debris", "lat": -76.53982385655537, "lon": -150.13362221193034, "alt_km": 828.5649819816745, "timestamp": "2025-12-27T07:26:25.497019+00:00", "meta": {"OBJECT_NAME": "FENGYUN 1C DEB", "OBJECT_ID": "1999-025YV", "EPOCH": "2025-12-26T15:49:04.557792", "MEAN_MOTION": 14.28854758, "ECCENTRICITY": 0.0036764, "INCLINATION": 98.7192, "RA_OF_ASC_NODE": 69.0958, "ARG_OF_PERICENTER": 68.732, "MEAN_ANOMALY": 84.6068, "EPHEMERIS_TYPE": 0, "CLASSIFICATION_TYPE": "U", "NORAD_CAT_ID": 30284, "ELEMENT_SET_NO": 999, "REV_AT_EPOCH": 97714, "BSTAR": 0.001383, "MEAN_MOTION_DOT": 3.471e-05, "MEAN_MOTION_DDOT": 0}, "tle": {"line1": "1 30284U 99025YV  25360.65908053  .00003471  00000+0  13830-2 0  9995", "line2": "2 30284  98.7192  69.0958 0036764  68.7320  84.6068 14.28854758977146"}}, "geometry": {"type": "Point", "coordinates": [-150.13362221193034, -76.53982385655537]}}, {"type": "Feature", "properties": {"norad_id": 30286, "name": "FENGYUN 1C DEB", "group": "fengyun-1c-debris", "lat": -27.837778729020325, "lon": -179.39411334567208, "alt_km": 876.3033478922634, "timestamp": "2025-12-27T07:26:25.497029+00:00", "meta": {"OBJECT_NAME": "FENGYUN 1C DEB", "OBJECT_ID": "1999-025YX", "EPOCH": "2025-12-26T22:15:46.020672", "MEAN_MOTION": 14.12728513, "ECCENTRICITY": 0.00649898, "INCLINATION": 98.6902, "RA_OF_ASC_NODE": 4.8675, "ARG_OF_PERICENTER": 92.9434, "MEAN_ANOMALY": 330.7327, "EPHEMERIS_TYPE": 0, "CLASSIFICATION_TYPE": "U", "NORAD_CAT_ID": 30286, "ELEMENT_SET_NO": 999, "REV_AT_EPOCH": 97659, "BSTAR": 9.7417071e-05, "MEAN_MOTION_DOT": 1.42e-06, "MEAN_MOTION_DDOT": 0}, "tle": {"line1": "1 30286U 99025YX  25360.92761598  .00000142  00000+0  97417-4 0  9995", "line2": "2 30286  98.6902   4.8675 0064989  92.9434 330.7327 14.12728513976597"}}, "geometry": {"type": "Point", "coordinates": [-179.39411334567208, -27.837778729020325]}}, {"type": "Feature", "properties": {"norad_id": 30287, "name": "FENGYUN 1C DEB", "group": "fengyun-1c-debris", "lat": -80.71957504907942, "lon": 145.60254521234893, "alt_km": 881.9508021783458, "timestamp": "2025-12-27T07:26:25.497039+00:00", "meta": {"OBJECT_NAME": "FENGYUN 1C DEB", "OBJECT_ID": "1999-025YY", "EPOCH": "2025-12-26T14:55:37.153056", "MEAN_MOTION": 13.68630341, "ECCENTRICITY": 0.04128, "INCLINATION": 98.6365, "RA_OF_ASC_NODE": 33.4313, "ARG_OF_PERICENTER": 335.3649, "MEAN_ANOMALY": 147.2397, "EPHEMERIS_TYPE": 0, "CLASSIFICATION_TYPE": "U", "NORAD_CAT_ID": 30287, "ELEMENT_SET_NO": 999, "REV_AT_EPOCH": 94048, "BSTAR": 0.0010086, "MEAN_MOTION_DOT": 1.533e-05, "MEAN_MOTION_DDOT": 0}, "tle": {"line1": "1 30287U 99025YY  25360.62195779  .00001533  00000+0  10086-2 0  9995", "line2": "2 30287  98.6365  33.4313 0412800 335.3649 147.2397 13.68630341940487"}}, "geometry": {"type": "Point", "coordinates": [145.60254521234893, -80.71957504907942]}}, {"type": "Feature", "properties": {"norad_id": 30288, "name": "FENGYUN 1C DEB", "group": "fengyun-1c-debris", "lat": -52.41288423759586, "lon": 96.59389745744235, "alt_km": 775.8263978544173, "timestamp": "2025-12-27T07:26:25.497049+00:00", "meta": {"OBJECT_NAME": "FENGYUN 1C DEB", "OBJECT_ID": "1999-025YZ", "EPOCH": "2025-12-26T04:59:47.256576", "MEAN_MOTION": 14.32706706, "ECCENTRICITY": 0.00219091, "INCLINATION": 99.3946, "RA_OF_ASC_NODE": 82.9802, "ARG_OF_PERICENTER": 280.9231, "MEAN_ANOMALY": 105.7803, "EPHEMERIS_TYPE": 0, "CLASSIFICATION_TYPE": "U", "NORAD_CAT_ID": 30288, "ELEMENT_SET_NO": 999, "REV_AT_EPOCH": 97762, "BSTAR": 0.0017986131, "MEAN_MOTION_DOT": 4.859e-05, "MEAN_MOTION_DDOT": 0}, "tle": {"line1": "1 30288U 99025YZ  25360.20818584  .00004859  00000+0  17986-2 0  9996", "line2": "2 30288  99.3946  82.9802 0021909 280.9231 105.7803 14.32706706977629"}}, "geometry": {"type": "Point", "coordinates": [96.59389745744235, -52.41288423759586]}}, {"type": "Feature", "properties": {"norad_id": 30289, "name": "FENGYUN 1C DEB", "group": "fengyun-1c-debris", "lat": 77.91240774027419, "lon": 50.86061569638662, "alt_km": 822.9197156597529, "timestamp": "2025-12-27T07:26:25.497060+00:00", "meta": {"OBJECT_NAME": "FENGYUN 1C DEB", "OBJECT_ID": "1999-025ZA", "EPOCH": "2025-12-26T06:03:41.259168", "MEAN_MOTION": 14.25946454, "ECCENTRICITY": 0.0038305, "INCLINATION": 98.9253, "RA_OF_ASC_NODE": 96.9907, "ARG_OF_PERICENTER": 289.655, "MEAN_ANOMALY": 126.6778, "EPHEMERIS_TYPE": 0, "CLASSIFICATION_TYPE": "U", "NORAD_CAT_ID": 30289, "ELEMENT_SET_NO": 999, "REV_AT_EPOCH": 97274, "BSTAR": 0.0021418, "MEAN_MOTION_DOT": 5.102e-05, "MEAN_MOTION_DDOT": 0}, "tle": {"line1": "1 30289U 99025ZA  25360.25256087  .00005102  00000+0  21418-2 0  9993", "line2": "2 30289  98.9253  96.9907 0038305 289.6550 126.6778 14.25946454972744"}}, "geometry": {"type": "Point", "coordinates": [50.86061569638662, 77.91240774027419]}}, {"type": "Feature", "properties": {"norad_id": 30290, "name": "FENGYUN 1C DEB", "group": "fengyun-1c-debris", "lat": -72.00398453070976, "lon": -112.4283395370181, "alt_km": 652.9292835820015, "timestamp": "2025-12-27T07:26:25.497070+00:00", "meta": {"OBJECT_NAME": "FENGYUN 1C DEB", "OBJECT_ID": "1999-025ZB", "EPOCH": "2025-12-26T06:00:43.066944", "MEAN_MOTION": 14.75742309, "ECCENTRICITY": 0.0017388, "INCLINATION": 102.6211, "RA_OF_ASC_NODE": 109.5367, "ARG_OF_PERICENTER": 5.445, "MEAN_ANOMALY": 25.6501, "EPHEMERIS_TYPE": 0, "CLASSIFICATION_TYPE": "U", "NORAD_CAT_ID": 30290, "ELEMENT_SET_NO": 999, "REV_AT_EPOCH": 98078, "BSTAR": 0.0049536, "MEAN_MOTION_DOT": 0.00034077, "MEAN_MOTION_DDOT": 0}, "tle": {"line1": "1 30290U 99025ZB  25360.25049846  .00034077  00000+0  49536-2 0  9992", "line2": "2 30290 102.6211 109.5367 0017388   5.4450  25.6501 14.75742309980788"}}, "geometry": {"type": "Point", "coordinates": [-112.4283395370181, -72.00398453070976]}}, {"type": "Feature", "properties": {"norad_id": 30291, "name": "FENGYUN 1C DEB", "group": "fengyun-1c-debris", "lat": 15.05962622760546, "lon": -113.79779926748355, "alt_km": 649.6621421864029, "timestamp": "2025-12-27T07:26:25.497080+00:00", "meta": {"OBJECT_NAME": "FENGYUN 1C DEB", "OBJECT_ID": "1999-025ZC", "EPOCH": "2025-12-26T23:10:57.907200", "MEAN_MOTION": 14.5560791, "ECCENTRICITY": 0.01102394, "INCLINATION": 97.2325, "RA_OF_ASC_NODE": 247.862, "ARG_OF_PERICENTER": 334.5112, "MEAN_ANOMALY": 38.0441, "EPHEMERIS_TYPE": 0, "CLASSIFICATION_TYPE": "U", "NORAD_CAT_ID": 30291, "ELEMENT_SET_NO": 999, "REV_AT_EPOCH": 97915, "BSTAR": 0.0036991753, "MEAN_MOTION_DOT": 0.00017514, "MEAN_MOTION_DDOT": 0}, "tle": {"line1": "1 30291U 99025ZC  25360.96594800  .00017514  00000+0  36992-2 0  9995", "line2": "2 30291  97.2325 247.8620 0110239 334.5112  38.0441 14.55607910979158"}}, "geometry": {"type": "Point", "coordinates": [-113.79779926748355, 15.05962622760546]}}, {"type": "Feature", "properties": {"norad_id": 30293, "name": "FENGYUN 1C DEB", "group": "fengyun-1c-debris", "lat": -63.035474657270356, "lon": -147.67201889894858, "alt_km": 775.1483474953848, "timestamp": "2025-12-27T07:26:25.497090+00:00", "meta": {"OBJECT_NAME": "FENGYUN 1C DEB", "OBJECT_ID": "1999-025ZE", "EPOCH": "2025-12-26T18:33:00.872928", "MEAN_MOTION": 14.49020799, "ECCENTRICITY": 0.00767886, "INCLINATION": 99.2549, "RA_OF_ASC_NODE": 193.0461, "ARG_OF_PERICENTER": 73.2372, "MEAN_ANOMALY": 302.7406, "EPHEMERIS_TYPE": 0, "CLASSIFICATION_TYPE": "U", "NORAD_CAT_ID": 30293, "ELEMENT_SET_NO": 999, "REV_AT_EPOCH": 99180, "BSTAR": 0.00072284807, "MEAN_MOTION_DOT": 2.792e-05, "MEAN_MOTION_DDOT": 0}, "tle": {"line1": "1 30293U 99025ZE  25360.77292677  .00002792  00000+0  72285-3 0  9991", "line2": "2 30293  99.2549 193.0461 0076788  73.2372 302.7406 14.49020799991805"}}, "geometry": {"type": "Point", "coordinates": [-147.67201889894858, -63.035474657270356]}}, {"type": "Feature", "properties": {"norad_id": 30294, "name": "FENGYUN 1C DEB", "group": "fengyun-1c-debris", "lat": -20.150729411236064, "lon": 166.00450778984293, "alt_km": 720.0243857461401, "timestamp": "2025-12-27T07:26:25.497100+00:00", "meta": {"OBJECT_NAME": "FENGYUN 1C DEB", "OBJECT_ID": "1999-025ZF", "EPOCH": "2025-12-26T19:21:09.355392", "MEAN_MOTION": 14.34987191, "ECCENTRICITY": 0.01970827, "INCLINATION": 98.3573, "RA_OF_ASC_NODE": 348.6088, "ARG_OF_PERICENTER": 267.4966, "MEAN_ANOMALY": 214.4333, "EPHEMERIS_TYPE": 0, "CLASSIFICATION_TYPE": "U", "NORAD_CAT_ID": 30294, "ELEMENT_SET_NO": 999, "REV_AT_EPOCH": 98738, "BSTAR": 0.0003497717, "MEAN_MOTION_DOT": 1.19e-05, "MEAN_MOTION_DDOT": 0}, "tle": {"line1": "1 30294U 99025ZF  25360.80635828  .00001190  00000+0  34977-3 0  9992", "line2": "2 30294  98.3573 348.6088 0197082 267.4966 214.4333 14.34987191987381"}}, "geometry": {"type": "Point", "coordinates": [166.00450778984293, -20.150729411236064]}}]}